FENGYUN 1C DEB          
1 32342U 99025CYK 24165.51259928  .00000234  00000+0  14817-3 0  9990
2 32342  98.6905 184.4658 0008972 102.7541  55.7177 14.12996253859887
FENGYUN 1C DEB          
1 32343U 99025CYL 24165.44629703  .00000875  00000+0  39884-3 0  9997
2 32343  98.5701 162.7896 0153808 268.4942  89.8611 14.18022893569513
FENGYUN 1C DEB          
1 32350U 99025CYT 24163.42289336  .00006135  00000+0  10559-2 0  9997
2 32350  98.2997 212.7675 0295827 180.3492 179.7539 14.44070814895735
FENGYUN 1C DEB          
1 32352U 99025CYV 24157.43665477  .00001945  00000+0  58628-3 0  9991
2 32352  98.7942  57.0102 0127263  22.9442 337.7360 14.39134768886305
FENGYUN 1C DEB          
1 32353U 99025CYW 24163.75254343  .00004837  00000+0  32856-2 0  9997
2 32353  98.9128 347.3799 0132995 281.8292  76.7981 13.96346675555090
FENGYUN 1C DEB          
1 32355U 99025CYY 24161.61675303  .00018625  00000+0  44301-2 0  9993
2 32355 100.3806 284.1352 0103378 277.8900  93.4426 14.50669901885165
FENGYUN 1C DEB          
1 32356U 99025CYZ 24163.32829828  .00004465  00000+0  30167-2 0  9999
2 32356 102.4926 180.2958 0133802 263.3865  95.2039 13.96957252863967
FENGYUN 1C DEB          
1 32357U 99025CZA 24162.99307130  .00017973  00000+0  97830-2 0  9997
2 32357  98.9148 240.4970 0529924 190.2606 347.1225 13.58350332592904
FENGYUN 1C DEB          
1 32360U 99025CZD 24165.13048818  .00006835  00000+0  42676-2 0  9998
2 32360  98.1295  41.4977 0254548  48.1915 314.0687 13.90257535571831
FENGYUN 1C DEB          
1 32361U 99025CZE 24163.03243316  .00009082  00000+0  29455-2 0  9993
2 32361  98.9021 190.6831 0056862 244.2223 145.8967 14.38220617884048
FENGYUN 1C DEB          
1 32362U 99025CZF 24165.33683144  .00002470  00000+0  25999-2 0  9999
2 32362  99.8314 124.9343 0287464 229.1767 128.4121 13.59301413836740
FENGYUN 1C DEB          
1 32363U 99025CZG 24162.47581700  .00012135  00000+0  84638-3 0  9992
2 32363  98.3478  61.9215 0163244 209.6802 149.5080 14.95319174894078
FENGYUN 1C DEB          
1 32364U 99025CZH 24156.42554801  .00005440  00000+0  29589-2 0  9997
2 32364  98.3643  28.3857 0142283 342.0765  17.5416 14.07588436558618
FENGYUN 1C DEB          
1 32366U 99025CZK 24163.45447924  .00001918  00000+0  10077-2 0  9995
2 32366  96.7754  53.9939 0150018 107.8759 253.8842 14.09217314854528
FENGYUN 1C DEB          
1 32372U 99025CZR 24160.85401576  .00002937  00000+0  33245-2 0  9990
2 32372  97.3026 191.4324 0468200  32.6916 330.2295 13.32100993527826
FENGYUN 1C DEB          
1 32409U 99025CZV 24160.96034769  .00011772  00000+0  26918-2 0  9995
2 32409  99.5558 229.1579 0055480  20.0929 154.6183 14.54915826884610
FENGYUN 1C DEB          
1 32411U 99025CZX 24163.10577145  .00000701  00000+0  40272-3 0  9997
2 32411  98.3883 111.1602 0126519 144.4652 216.5027 14.08236506580735
FENGYUN 1C DEB          
1 32414U 99025DAA 24162.42229823  .00004664  00000+0  24789-2 0  9997
2 32414  98.8940 228.8880 0052092 126.0974 234.5038 14.13264956859432
FENGYUN 1C DEB          
1 32416U 99025DAC 24161.93306924  .00001328  00000+0  14167-2 0  9995
2 32416 100.8249 182.4447 0243672 176.0685 304.7668 13.64088360541169
FENGYUN 1C DEB          
1 32419U 99025DAF 24162.71256938  .00001448  00000+0  60428-3 0  9999
2 32419  97.8812 158.2101 0291765 181.0035 179.0588 14.06985419558274
FENGYUN 1C DEB          
1 32422U 99025DAJ 24163.82031708  .00001136  00000+0  57091-3 0  9998
2 32422  97.8158  10.2747 0305086  56.3989 306.5901 13.96523981554674
FENGYUN 1C DEB          
1 32425U 99025DAM 24165.48916795  .00001176  00000+0  47633-3 0  9998
2 32425  96.7270  82.2923 0240379 147.7480 213.8660 14.14360304617928
FENGYUN 1C DEB          
1 32430U 99025DAS 24162.93530377  .00004998  00000+0  37919-2 0  9999
2 32430  98.7152 234.0271 0382837 285.3193  70.5955 13.64745495836867
FENGYUN 1C DEB          
1 32432U 99025DAU 24164.38540138  .00009556  00000+0  24132-2 0  9996
2 32432  98.2256 211.9539 0210877 180.0847 180.0341 14.38675303627687
FENGYUN 1C DEB          
1 32433U 99025DAV 24165.22121960  .00270438  00000+0  12928-1 0  9997
2 32433  98.2044 152.3472 0074515  30.8752 329.6828 15.15391426393173
FENGYUN 1C DEB          
1 32440U 99025DBC 24161.93621780  .00007321  00000+0  72217-2 0  9991
2 32440  99.1559  46.7077 0343995  66.4558 297.2323 13.55671932528051
FENGYUN 1C DEB          
1 32447U 99025DBK 24160.82874745  .00000230  00000+0  19528-3 0  9995
2 32447  98.9691 186.5632 0080981 117.2588 243.6852 13.95501890601797
FENGYUN 1C DEB          
1 32451U 99025DBP 24158.56743859  .00003747  00000+0  31688-2 0  9995
2 32451  99.9509  99.8439 0199313 199.1364 160.2222 13.79615696541018
FENGYUN 1C DEB          
1 32453U 99025DBR 24165.13215590  .00001350  00000+0  90844-3 0  9992
2 32453  99.4224  53.4759 0102015 263.2346  95.7200 14.00000011857591
FENGYUN 1C DEB          
1 32454U 99025DBS 24160.23150518  .00013308  00000+0  40033-2 0  9997
2 32454  98.4096 176.8648 0236311 289.8046  67.7800 14.27812862868572
FENGYUN 1C DEB          
1 32455U 99025DBT 24165.39434973  .00005131  00000+0  35517-2 0  9996
2 32455 101.7290 211.0101 0262007  49.9932 312.3896 13.84417844568173
FENGYUN 1C DEB          
1 32456U 99025DBU 24160.62336032  .00001244  00000+0  17746-2 0  9990
2 32456 103.6697 110.7703 0381886 270.2649  85.4717 13.33440265532505
FENGYUN 1C DEB          
1 32459U 99025DBX 24164.30444481  .00005162  00000+0  12779-2 0  9994
2 32459  98.3355 187.0583 0228164  40.9304 320.8764 14.37814576866548
FENGYUN 1C DEB          
1 32460U 99025DBY 24165.35726342  .00001695  00000+0  12853-2 0  9991
2 32460  98.0149  21.3970 0190384 209.8692 149.1495 13.86837755576588
FENGYUN 1C DEB          
1 32461U 99025DBZ 24165.23866691  .00001607  00000+0  15244-2 0  9991
2 32461  98.3711  84.2945 0238656 148.2351   6.7808 13.70190553597883
FENGYUN 1C DEB          
1 32464U 99025DCC 24165.12421261  .00008336  00000+0  10904-2 0  9996
2 32464  97.4139 224.3770 0160151 245.8049 112.6350 14.72019005526757
FENGYUN 1C DEB          
1 33502U 99025DCF 24165.28633032  .00004532  00000+0  24346-2 0  9997
2 33502  99.0088  94.4168 0091677 271.0725 243.7748 14.11293835792016
FENGYUN 1C DEB          
1 33599U 99025DCG 24162.59885027  .00015204  00000+0  13973-2 0  9999
2 33599  96.6155 308.6248 0231106  27.1554 334.1527 14.76672527879085
FENGYUN 1C DEB          
1 33601U 99025DCJ 24146.79089895  .00002324  00000+0  13445-2 0  9999
2 33601  98.2919 344.0128 0165134 315.4288  43.3698 14.03209017827283
FENGYUN 1C DEB          
1 33603U 99025DCL 24164.38861209  .00003631  00000+0  34844-3 0  9992
2 33603  98.8252  43.1052 0232828   4.2137 356.0958 14.75628838907608
FENGYUN 1C DEB          
1 33605U 99025DCN 24163.81109630  .00001305  00000+0  81046-3 0  9996
2 33605  98.6985 177.6611 0057966 181.7572 353.8182 14.05898361520997
FENGYUN 1C DEB          
1 33612U 99025DCV 24163.43612444  .00002896  00000+0  19024-2 0  9996
2 33612  98.5706 158.5329 0115751 211.6981 147.7180 13.99455778857548
FENGYUN 1C DEB          
1 33613U 99025DCW 24162.45705903  .00007499  00000+0  32573-2 0  9999
2 33613  98.7344 228.3350 0033545 252.9467 106.8036 14.24102957566502
FENGYUN 1C DEB          
1 33618U 99025DDB 24164.43347586  .00005808  00000+0  11246-2 0  9999
2 33618  98.5739 230.3326 0188515  29.5133 331.6547 14.52950100887946
FENGYUN 1C DEB          
1 33619U 99025DDC 24165.14798385  .00003238  00000+0  17595-2 0  9994
2 33619  98.8942 231.0984 0057747 160.4797 199.8604 14.12149641558799
FENGYUN 1C DEB          
1 33621U 99025DDE 24165.43003780  .00002710  00000+0  90315-3 0  9993
2 33621  98.2131  52.2884 0297951  92.3554 271.1765 14.16063216564870
FENGYUN 1C DEB          
1 33625U 99025DDJ 24165.20877012  .00006048  00000+0  10454-2 0  9992
2 33625  98.6178 252.4593 0264359  11.9757 348.7559 14.48378385534283
FENGYUN 1C DEB          
1 33630U 99025DDP 24163.04801781  .00002091  00000+0  99230-3 0  9992
2 33630  98.5784 281.3405 0138357 208.4291 150.9287 14.15639953566278
FENGYUN 1C DEB          
1 33633U 99025DDS 24164.18048382  .00004427  00000+0  23827-2 0  9994
2 33633  99.0663 243.2121 0090920 261.3279 127.8370 14.11247287829484
FENGYUN 1C DEB          
1 33636U 99025DDV 24161.86446851  .00002883  00000+0  11698-2 0  9999
2 33636  98.5006 186.1359 0068671 277.8034 208.1662 14.27125092621998
FENGYUN 1C DEB          
1 33637U 99025DDW 24160.38013019  .00005739  00000+0  21541-2 0  9993
2 33637  98.5431 207.6703 0090092 348.9725  10.9481 14.29749262836799
FENGYUN 1C DEB          
1 33638U 99025DDX 24162.60711395  .00002258  00000+0  21588-2 0  9997
2 33638  98.4615 113.9026 0270427 297.8566  59.5424 13.66346885840657
FENGYUN 1C DEB          
1 33640U 99025DDZ 24165.24218737  .00002833  00000+0  83733-3 0  9995
2 33640  98.8109  82.0025 0097408 356.1535   3.8894 14.41581768844414
FENGYUN 1C DEB          
1 33643U 99025DEC 24165.25477434  .00048204  00000+0  24950-2 0  9997
2 33643  99.0710 268.3539 0077149 104.3184 256.6624 15.13458338889335
FENGYUN 1C DEB          
1 33645U 99025DEE 24158.74830518  .00079850  00000+0  78280-2 0  9997
2 33645  99.5667 344.3003 0186043 213.0501 145.8968 14.79783551572304
FENGYUN 1C DEB          
1 33648U 99025DEH 24164.29644762  .00000341  00000+0  20855-3 0  9996
2 33648  98.7103 172.6977 0068151 293.4991  65.9029 14.11259379566393
FENGYUN 1C DEB          
1 33650U 99025DEK 24165.45810965  .00002038  00000+0  16472-2 0  9992
2 33650  98.9605 345.7420 0156621 122.1611 239.4848 13.85782230612181
FENGYUN 1C DEB          
1 33651U 99025DEL 24165.37221286  .00000525  00000+0  25119-3 0  9994
2 33651  98.7308 214.3042 0118172 191.1045 168.7520 14.19573276565035
FENGYUN 1C DEB          
1 33655U 99025DEQ 24165.46276051  .00011354  00000+0  17832-2 0  9992
2 33655  98.8491 166.4038 0077625 302.3866  56.9843 14.70759715884399
FENGYUN 1C DEB          
1 33656U 99025DER 24162.74393306  .00001399  00000+0  64048-3 0  9994
2 33656  98.5545 165.5612 0092370 186.3649 173.6362 14.20705867548932
